{
  "omm": {
    "OBJECT_NAME": "HOTSAT-1",
    "OBJECT_ID": "2023-084Y",
    "EPOCH": "2025-08-21T14:29:16.689696",
    "MEAN_MOTION": 15.2180209,
    "ECCENTRICITY": 0.00061102,
    "INCLINATION": 97.5855,
    "RA_OF_ASC_NODE": 359.6539,
    "ARG_OF_PERICENTER": 4.6567,
    "MEAN_ANOMALY": 355.4724,
    "EPHEMERIS_TYPE": 0,
    "CLASSIFICATION_TYPE": "U",
    "NORAD_CAT_ID": 56954,
    "ELEMENT_SET_NO": 999,
    "REV_AT_EPOCH": 12152,
    "BSTAR": 0.00016831904,
    "MEAN_MOTION_DOT": 3.75e-05,
    "MEAN_MOTION_DDOT": 0
  },
  "start": {
    "julian": 2460909.104466131,
    "utc": "2025-08-21T14:29:16.689696+00:00"
  },
  "end": {
    "julian": 2460914.104466131,
    "utc": "2025-08-26T14:29:16.689696+00:00"
  },
  "events": [
    {
      "julian": 2460909.5087078563,
      "utc": "2025-08-22T00:11:23.174784+00:00"
    },
    {
      "julian": 2460910.0484676315,
      "utc": "2025-08-22T13:08:38.419357+00:00"
    },
    {
      "julian": 2460910.4951986335,
      "utc": "2025-08-22T23:51:55.977936+00:00"
    },
    {
      "julian": 2460911.1000139276,
      "utc": "2025-08-23T14:22:52.019341+00:00"
    },
    {
      "julian": 2460911.5467029978,
      "utc": "2025-08-24T01:06:05.955006+00:00"
    },
    {
      "julian": 2460912.086484973,
      "utc": "2025-08-24T14:03:23.117655+00:00"
    },
    {
      "julian": 2460912.5330827795,
      "utc": "2025-08-25T00:46:29.168149+00:00"
    },
    {
      "julian": 2460913.072919018,
      "utc": "2025-08-25T13:43:51.019164+00:00"
    },
    {
      "julian": 2460913.5194921605,
      "utc": "2025-08-26T00:26:54.938670+00:00"
    },
    {
      "julian": 2460914.0593111343,
      "utc": "2025-08-26T13:24:15.298001+00:00"
    }
  ]
}